{
"type": "FeatureCollection",
"name": "FORESTS",
"crs": { "type": "name", "properties": { "name": "urn:ogc:def:crs:OGC:1.3:CRS84" } },
"features": [
{ "type": "Feature", "properties": { "NAME": "Chesa", "AREA": 147 }, "geometry": { "type": "MultiPolygon", "coordinates": [ [ [ [ 28.20683, -20.08219 ], [ 28.10926, -19.9581 ], [ 28.15665, -19.97104 ], [ 28.19193, -19.95801 ], [ 28.26095, -19.97371 ], [ 28.28519, -20.06806 ], [ 28.20683, -20.08219 ] ] ] ] } },
{ "type": "Feature", "properties": { "NAME": "Molo", "AREA": 28 }, "geometry": { "type": "MultiPolygon", "coordinates": [ [ [ [ 28.28584, -19.21356 ], [ 28.3306, -19.22231 ], [ 28.32235, -19.26476 ], [ 28.27757, -19.26359 ], [ 28.27542, -19.21355 ], [ 28.28584, -19.21356 ] ] ] ] } },
{ "type": "Feature", "properties": { "NAME": "Mzola", "AREA": 676 }, "geometry": { "type": "MultiPolygon", "coordinates": [ [ [ [ 27.88767, -18.30205 ], [ 27.86142, -18.33436 ], [ 27.85959, -18.38531 ], [ 27.7409, -18.40316 ], [ 27.578136, -18.430267 ], [ 27.521817, -18.365377 ], [ 27.35565, -18.40353 ], [ 27.33672, -18.40948 ], [ 27.43231, -18.32049 ], [ 27.43519, -18.32119 ], [ 27.44674, -18.3224 ], [ 27.45854, -18.32154 ], [ 27.46792, -18.32251 ], [ 27.47563, -18.32186 ], [ 27.48551, -18.31961 ], [ 27.49106, -18.31619 ], [ 27.49565, -18.31185 ], [ 27.4988, -18.30704 ], [ 27.5022, -18.3027 ], [ 27.50487, -18.29905 ], [ 27.50632, -18.29676 ], [ 27.50752, -18.29515 ], [ 27.50994, -18.29287 ], [ 27.51218, -18.29276 ], [ 27.65399, -18.28599 ], [ 27.78939, -18.27952 ], [ 27.78747, -18.27515 ], [ 27.78701, -18.26941 ], [ 27.78534, -18.26527 ], [ 27.78535, -18.26274 ], [ 27.78512, -18.26045 ], [ 27.78513, -18.25609 ], [ 27.78562, -18.25357 ], [ 27.78659, -18.25173 ], [ 27.78997, -18.24761 ], [ 27.79551, -18.24557 ], [ 27.90369, -18.19147 ], [ 27.90031, -18.28649 ], [ 27.89483, -18.29323 ], [ 27.88767, -18.30205 ] ] ] ] } },
{ "type": "Feature", "properties": { "NAME": "Panda Masue", "AREA": 360 }, "geometry": { "type": "MultiPolygon", "coordinates": [ [ [ [ 25.660848, -18.041193 ], [ 25.74903, -18.040728 ], [ 25.748559, -18.041983 ], [ 25.748559, -18.046695 ], [ 25.748196, -18.049595 ], [ 25.747471, -18.05322 ], [ 25.747471, -18.055395 ], [ 25.748196, -18.058658 ], [ 25.747736, -18.065608 ], [ 25.730424, -18.06673 ], [ 25.682333, -18.091096 ], [ 25.674971, -18.10542 ], [ 25.679608, -18.166437 ], [ 25.732027, -18.169803 ], [ 25.776109, -18.151458 ], [ 25.753996, -18.173208 ], [ 25.68008, -18.201913 ], [ 25.680046, -18.201845 ], [ 25.623859, -18.215983 ], [ 25.547312, -18.226502 ], [ 25.499884, -18.23302 ], [ 25.499875, -18.23369 ], [ 25.487151, -18.236014 ], [ 25.456953, -18.18483 ], [ 25.501441, -18.158033 ], [ 25.490644, -18.144667 ], [ 25.499823, -18.141303 ], [ 25.499877, -18.141302 ], [ 25.499877, -18.141283 ], [ 25.501051, -18.140853 ], [ 25.504943, -18.137978 ], [ 25.586884, -18.113395 ], [ 25.660848, -18.041193 ] ] ] ] } },
{ "type": "Feature", "properties": { "NAME": "Kazuma", "AREA": 247 }, "geometry": { "type": "MultiPolygon", "coordinates": [ [ [ [ 25.595011, -18.329049 ], [ 25.61765, -18.350213 ], [ 25.661595, -18.299657 ], [ 25.746267, -18.288789 ], [ 25.748662, -18.288789 ], [ 25.751703, -18.288789 ], [ 25.75714, -18.288789 ], [ 25.761217, -18.289469 ], [ 25.763256, -18.292867 ], [ 25.762576, -18.294905 ], [ 25.755101, -18.297623 ], [ 25.748306, -18.334319 ], [ 25.763935, -18.360143 ], [ 25.74874, -18.358416 ], [ 25.745911, -18.358095 ], [ 25.741419, -18.357584 ], [ 25.734035, -18.356745 ], [ 25.708891, -18.371015 ], [ 25.701416, -18.39412 ], [ 25.629383, -18.452562 ], [ 25.595781, -18.467425 ], [ 25.568287, -18.430766 ], [ 25.532709, -18.392304 ], [ 25.595011, -18.329049 ] ] ] ] } },
{ "type": "Feature", "properties": { "NAME": "Ngamo", "AREA": 1039 }, "geometry": { "type": "MultiPolygon", "coordinates": [ [ [ [ 27.365341, -18.862454 ], [ 27.365358, -18.862486 ], [ 27.408548, -18.813159 ], [ 27.428953, -18.806145 ], [ 27.440482, -18.813249 ], [ 27.452737, -18.799871 ], [ 27.460282, -18.821046 ], [ 27.472535, -18.807721 ], [ 27.487802, -18.822974 ], [ 27.515814, -18.821163 ], [ 27.52934, -18.837049 ], [ 27.55198, -18.8434 ], [ 27.565682, -18.853535 ], [ 27.572274, -18.863402 ], [ 27.588518, -18.868891 ], [ 27.599265, -18.874614 ], [ 27.605728, -18.876617 ], [ 27.612747, -18.898419 ], [ 27.628998, -18.909752 ], [ 27.634798, -18.911865 ], [ 27.655934, -18.911719 ], [ 27.681602, -18.911952 ], [ 27.673224, -18.927816 ], [ 27.744621, -18.928176 ], [ 27.745147, -18.932716 ], [ 27.74293, -18.93623 ], [ 27.7417, -18.93967 ], [ 27.742039, -18.941637 ], [ 27.741797, -18.942421 ], [ 27.742157, -18.942323 ], [ 27.74265, -18.94518 ], [ 27.74745, -18.95185 ], [ 27.75347, -18.95761 ], [ 27.75564, -18.95991 ], [ 27.76044, -18.96659 ], [ 27.76284, -18.97165 ], [ 27.76354, -18.97761 ], [ 27.76281, -18.98083 ], [ 27.76061, -18.9861 ], [ 27.75745, -18.99136 ], [ 27.75405, -18.9964 ], [ 27.74823, -19.00234 ], [ 27.74556, -19.00646 ], [ 27.74119, -19.01081 ], [ 27.73465, -19.01262 ], [ 27.72692, -19.01466 ], [ 27.71868, -19.01761 ], [ 27.71263, -19.02148 ], [ 27.70826, -19.02491 ], [ 27.70341, -19.02903 ], [ 27.70219, -19.03384 ], [ 27.7029, -19.03706 ], [ 27.70385, -19.03959 ], [ 27.70479, -19.04533 ], [ 27.7043, -19.04831 ], [ 27.70259, -19.05221 ], [ 27.69968, -19.05517 ], [ 27.69725, -19.05837 ], [ 27.69603, -19.0625 ], [ 27.69527, -19.06778 ], [ 27.69598, -19.07261 ], [ 27.69958, -19.07858 ], [ 27.70295, -19.08319 ], [ 27.70535, -19.0871 ], [ 27.7063, -19.08986 ], [ 27.70702, -19.09193 ], [ 27.70628, -19.09697 ], [ 27.70603, -19.09766 ], [ 27.70531, -19.09857 ], [ 27.70167, -19.10017 ], [ 27.70022, -19.09993 ], [ 27.69613, -19.09716 ], [ 27.69395, -19.09509 ], [ 27.68662, -19.09524 ], [ 27.68036, -19.09536 ], [ 27.66365, -19.0957 ], [ 27.58735, -19.09724 ], [ 27.47173, -19.09957 ], [ 27.46912, -19.097494 ], [ 27.465465, -19.100374 ], [ 27.285301, -18.958791 ], [ 27.282364, -18.955388 ], [ 27.311939, -18.92338 ], [ 27.365341, -18.862454 ] ] ], [ [ [ 27.747278, -18.929339 ], [ 27.744621, -18.928176 ], [ 27.744677, -18.925826 ], [ 27.743216, -18.925619 ], [ 27.74562, -18.92545 ], [ 27.749, -18.92661 ], [ 27.747278, -18.929339 ] ] ], [ [ [ 27.724757, -18.924359 ], [ 27.733307, -18.925153 ], [ 27.725652, -18.925233 ], [ 27.724757, -18.924359 ] ] ] ] } },
{ "type": "Feature", "properties": { "NAME": "Sikumi", "AREA": 552 }, "geometry": { "type": "MultiPolygon", "coordinates": [ [ [ [ 27.365743, -18.860976 ], [ 27.365358, -18.862486 ], [ 27.365341, -18.862454 ], [ 27.311939, -18.92338 ], [ 27.301076, -18.914963 ], [ 27.281267, -18.898723 ], [ 27.280495, -18.897731 ], [ 27.279817, -18.89849 ], [ 27.275739, -18.89533 ], [ 27.246626, -18.928397 ], [ 27.18683, -18.881406 ], [ 27.183215, -18.877872 ], [ 27.213142, -18.843378 ], [ 27.206297, -18.837948 ], [ 27.16959, -18.808586 ], [ 27.13621, -18.781979 ], [ 27.105679, -18.816813 ], [ 27.064627, -18.78396 ], [ 27.092829, -18.75105 ], [ 27.061917, -18.72507 ], [ 27.061403, -18.725727 ], [ 27.058144, -18.723101 ], [ 27.029332, -18.756476 ], [ 27.03429, -18.760337 ], [ 27.034151, -18.760515 ], [ 26.9919, -18.727222 ], [ 26.992428, -18.726671 ], [ 26.994275, -18.728153 ], [ 26.999171, -18.722033 ], [ 27.000395, -18.722441 ], [ 27.023935, -18.695606 ], [ 27.006764, -18.681498 ], [ 26.988563, -18.666545 ], [ 26.990194, -18.642065 ], [ 26.999171, -18.638394 ], [ 27.000395, -18.642881 ], [ 27.043647, -18.627378 ], [ 27.037934, -18.613506 ], [ 26.952607, -18.637695 ], [ 26.917953, -18.61075 ], [ 26.888907, -18.644582 ], [ 26.872191, -18.630803 ], [ 26.880735, -18.617761 ], [ 26.86406, -18.606633 ], [ 26.88597, -18.583819 ], [ 26.903363, -18.542257 ], [ 26.98469, -18.53314 ], [ 26.9861, -18.53728 ], [ 26.98777, -18.54118 ], [ 26.9906, -18.54672 ], [ 26.993, -18.54902 ], [ 26.99731, -18.55204 ], [ 27.00351, -18.55966 ], [ 27.01312, -18.56363 ], [ 27.02033, -18.5669 ], [ 27.02751, -18.57292 ], [ 27.03518, -18.57848 ], [ 27.04212, -18.58404 ], [ 27.04618, -18.58866 ], [ 27.05145, -18.5926 ], [ 27.05672, -18.59676 ], [ 27.06222, -18.603 ], [ 27.06847, -18.60534 ], [ 27.07134, -18.60719 ], [ 27.07471, -18.60859 ], [ 27.07688, -18.60929 ], [ 27.038789, -18.664287 ], [ 27.141248, -18.730554 ], [ 27.1577, -18.732016 ], [ 27.15919, -18.76039 ], [ 27.19308, -18.77805 ], [ 27.20297, -18.7795 ], [ 27.21117, -18.78 ], [ 27.22539, -18.78147 ], [ 27.23505, -18.7813 ], [ 27.24782, -18.78391 ], [ 27.25842, -18.78581 ], [ 27.27288, -18.79003 ], [ 27.28709, -18.79356 ], [ 27.30034, -18.79686 ], [ 27.31143, -18.79876 ], [ 27.32083, -18.80133 ], [ 27.32829, -18.80345 ], [ 27.33263, -18.80393 ], [ 27.33601, -18.8044 ], [ 27.365743, -18.860976 ] ] ] ] } },
{ "type": "Feature", "properties": { "NAME": "Kavira", "AREA": 278 }, "geometry": { "type": "MultiPolygon", "coordinates": [ [ [ [ 26.961495, -18.020783 ], [ 27.029466, -17.97049 ], [ 27.028807, -17.973345 ], [ 27.025293, -17.977298 ], [ 27.018925, -17.984216 ], [ 27.02167, -17.984765 ], [ 27.025074, -17.981801 ], [ 27.026941, -17.983118 ], [ 27.025403, -17.988279 ], [ 27.024305, -17.994538 ], [ 27.027599, -17.99344 ], [ 27.02738, -17.990256 ], [ 27.030015, -17.98235 ], [ 27.031662, -17.973785 ], [ 27.033419, -17.971259 ], [ 27.036933, -17.968514 ], [ 27.041106, -17.967745 ], [ 27.042204, -17.964231 ], [ 27.046157, -17.961486 ], [ 27.04451, -17.965878 ], [ 27.044839, -17.971808 ], [ 27.044949, -17.975432 ], [ 27.043961, -17.981471 ], [ 27.045937, -17.981801 ], [ 27.046047, -17.983557 ], [ 27.046816, -17.986742 ], [ 27.048683, -17.983448 ], [ 27.052087, -17.976749 ], [ 27.053734, -17.978506 ], [ 27.056918, -17.977518 ], [ 27.057357, -17.975541 ], [ 27.057357, -17.973785 ], [ 27.058126, -17.970051 ], [ 27.057577, -17.965329 ], [ 27.06186, -17.963243 ], [ 27.067789, -17.964561 ], [ 27.070534, -17.968733 ], [ 27.071523, -17.96511 ], [ 27.07284, -17.960058 ], [ 27.077013, -17.961376 ], [ 27.076244, -17.965219 ], [ 27.077562, -17.969063 ], [ 27.079758, -17.972467 ], [ 27.079209, -17.975651 ], [ 27.077562, -17.979275 ], [ 27.077892, -17.983118 ], [ 27.07855, -17.980812 ], [ 27.080198, -17.977189 ], [ 27.080856, -17.974443 ], [ 27.082394, -17.972796 ], [ 27.086237, -17.973675 ], [ 27.0847, -17.9762 ], [ 27.083931, -17.978836 ], [ 27.087774, -17.982459 ], [ 27.092167, -17.985644 ], [ 27.095571, -17.990366 ], [ 27.100512, -17.991793 ], [ 27.108858, -17.994319 ], [ 27.111822, -18.000248 ], [ 27.118411, -18.001127 ], [ 27.1192, -18.000793 ], [ 27.11736, -18.00426 ], [ 27.11133, -18.00766 ], [ 27.10528, -18.01313 ], [ 27.10213, -18.01723 ], [ 27.10212, -18.0193 ], [ 27.10208, -18.02343 ], [ 27.09773, -18.02822 ], [ 27.09195, -18.02979 ], [ 27.08595, -18.02975 ], [ 27.08259, -18.02904 ], [ 27.07922, -18.02947 ], [ 27.07679, -18.03381 ], [ 27.07531, -18.03955 ], [ 27.07192, -18.04319 ], [ 27.0589, -18.04907 ], [ 27.030307, -18.061791 ], [ 27.000099, -18.097379 ], [ 26.971132, -18.146209 ], [ 26.971037, -18.160434 ], [ 26.875542, -18.160278 ], [ 26.86943, -18.15481 ], [ 26.858162, -18.144967 ], [ 26.856093, -18.140001 ], [ 26.85899, -18.132967 ], [ 26.864369, -18.118897 ], [ 26.866438, -18.097793 ], [ 26.86768, -18.08993 ], [ 26.869749, -18.086206 ], [ 26.876784, -18.080413 ], [ 26.881705, -18.078732 ], [ 26.885068, -18.077224 ], [ 26.887273, -18.07856 ], [ 26.954028, -18.026163 ], [ 26.961495, -18.020783 ] ] ] ] } },
{ "type": "Feature", "properties": { "NAME": "Fuller", "AREA": 269 }, "geometry": { "type": "MultiPolygon", "coordinates": [ [ [ [ 25.952542, -18.144076 ], [ 25.952439, -18.14561 ], [ 25.960888, -18.148647 ], [ 25.971033, -18.152293 ], [ 25.979646, -18.155389 ], [ 25.987682, -18.158278 ], [ 25.989468, -18.15892 ], [ 25.989672, -18.158992 ], [ 25.991072, -18.159598 ], [ 25.9917, -18.159921 ], [ 25.992134, -18.16017 ], [ 25.993274, -18.16102 ], [ 25.993504, -18.160999 ], [ 25.993752, -18.160812 ], [ 25.993677, -18.160972 ], [ 26.001355, -18.161703 ], [ 26.007204, -18.164994 ], [ 26.008301, -18.167553 ], [ 26.015978, -18.169746 ], [ 26.020731, -18.169381 ], [ 26.024021, -18.171574 ], [ 26.028408, -18.172671 ], [ 26.060945, -18.156951 ], [ 26.068257, -18.147811 ], [ 26.097869, -18.148542 ], [ 26.100794, -18.145983 ], [ 26.103718, -18.14379 ], [ 26.106277, -18.142693 ], [ 26.108837, -18.140134 ], [ 26.11103, -18.138306 ], [ 26.113589, -18.135016 ], [ 26.130772, -18.141596 ], [ 26.118066, -18.184796 ], [ 26.066622, -18.172071 ], [ 26.040556, -18.201441 ], [ 26.033488, -18.209186 ], [ 26.036006, -18.212118 ], [ 26.035988, -18.218787 ], [ 26.035165, -18.219629 ], [ 26.029746, -18.221889 ], [ 26.015431, -18.208084 ], [ 25.990018, -18.223784 ], [ 25.97428, -18.20455 ], [ 25.94217, -18.2355 ], [ 25.934432, -18.214093 ], [ 25.917407, -18.216339 ], [ 25.909493, -18.226659 ], [ 25.908901, -18.223041 ], [ 25.904115, -18.218603 ], [ 25.899326, -18.213235 ], [ 25.893683, -18.211441 ], [ 25.89093, -18.208668 ], [ 25.885951, -18.205097 ], [ 25.883014, -18.202957 ], [ 25.885744, -18.182503 ], [ 25.872495, -18.14135 ], [ 25.858254, -18.132355 ], [ 25.852665, -18.15912 ], [ 25.845858, -18.149147 ], [ 25.840484, -18.142698 ], [ 25.835369, -18.142848 ], [ 25.833814, -18.140661 ], [ 25.828852, -18.136447 ], [ 25.825136, -18.133731 ], [ 25.825165, -18.127983 ], [ 25.806485, -18.113319 ], [ 25.800287, -18.114329 ], [ 25.798878, -18.073744 ], [ 25.781954, -18.079072 ], [ 25.786229, -18.060448 ], [ 25.788875, -18.046099 ], [ 25.791827, -18.031545 ], [ 25.796829, -18.008793 ], [ 25.834926, -18.012399 ], [ 25.83793, -18.055088 ], [ 25.84196, -18.066286 ], [ 25.845981, -18.076888 ], [ 25.85183, -18.08749 ], [ 25.853658, -18.094436 ], [ 25.853431, -18.094582 ], [ 25.853214, -18.094142 ], [ 25.841993, -18.089493 ], [ 25.840218, -18.094069 ], [ 25.820512, -18.086127 ], [ 25.818909, -18.089974 ], [ 25.858061, -18.104524 ], [ 25.858723, -18.104904 ], [ 25.862845, -18.107808 ], [ 25.894419, -18.123923 ], [ 25.926836, -18.133761 ], [ 25.952508, -18.14416 ], [ 25.952542, -18.144076 ] ] ] ] } },
{ "type": "Feature", "properties": { "NAME": "Mvutu", "AREA": 269 }, "geometry": { "type": "MultiPolygon", "coordinates": [ [ [ [ 25.952542, -18.144076 ], [ 25.967592, -18.106403 ], [ 26.009032, -18.120392 ], [ 25.996236, -18.155488 ], [ 25.993752, -18.160812 ], [ 25.993504, -18.160999 ], [ 25.993274, -18.16102 ], [ 25.992134, -18.16017 ], [ 25.9917, -18.159921 ], [ 25.991072, -18.159598 ], [ 25.989672, -18.158992 ], [ 25.989468, -18.15892 ], [ 25.987682, -18.158278 ], [ 25.979646, -18.155389 ], [ 25.971033, -18.152293 ], [ 25.960888, -18.148647 ], [ 25.952439, -18.14561 ], [ 25.952542, -18.144076 ] ] ] ] } },
{ "type": "Feature", "properties": { "NAME": "Sijarira", "AREA": 0 }, "geometry": { "type": "MultiPolygon", "coordinates": [ [ [ [ 27.455512, -17.538247 ], [ 27.455513, -17.538243 ], [ 27.456587, -17.53618 ], [ 27.458556, -17.534977 ], [ 27.458735, -17.533086 ], [ 27.458735, -17.53171 ], [ 27.459272, -17.530679 ], [ 27.459272, -17.529647 ], [ 27.459093, -17.527069 ], [ 27.459809, -17.527069 ], [ 27.461241, -17.52896 ], [ 27.462315, -17.530679 ], [ 27.46321, -17.531023 ], [ 27.464105, -17.529991 ], [ 27.465001, -17.529132 ], [ 27.464464, -17.527928 ], [ 27.464643, -17.526897 ], [ 27.464822, -17.525521 ], [ 27.465896, -17.52449 ], [ 27.467149, -17.523458 ], [ 27.465538, -17.522771 ], [ 27.465001, -17.520192 ], [ 27.463389, -17.51916 ], [ 27.463031, -17.517097 ], [ 27.464285, -17.515722 ], [ 27.464822, -17.514347 ], [ 27.466612, -17.513831 ], [ 27.467328, -17.515206 ], [ 27.46876, -17.514691 ], [ 27.470192, -17.512628 ], [ 27.471087, -17.511252 ], [ 27.471624, -17.509361 ], [ 27.472877, -17.509361 ], [ 27.47413, -17.509705 ], [ 27.47592, -17.509705 ], [ 27.476994, -17.510737 ], [ 27.475383, -17.510908 ], [ 27.474667, -17.511768 ], [ 27.476994, -17.512284 ], [ 27.478068, -17.512284 ], [ 27.478605, -17.513315 ], [ 27.4795, -17.512456 ], [ 27.481291, -17.512971 ], [ 27.482186, -17.512456 ], [ 27.482902, -17.511252 ], [ 27.483618, -17.509189 ], [ 27.484334, -17.509189 ], [ 27.487377, -17.509705 ], [ 27.489346, -17.509705 ], [ 27.489704, -17.510565 ], [ 27.492031, -17.510908 ], [ 27.496328, -17.510908 ], [ 27.499908, -17.510908 ], [ 27.504025, -17.509705 ], [ 27.507963, -17.508502 ], [ 27.51029, -17.507298 ], [ 27.512976, -17.507298 ], [ 27.516377, -17.507298 ], [ 27.518883, -17.506954 ], [ 27.521389, -17.504719 ], [ 27.522821, -17.503344 ], [ 27.526759, -17.503344 ], [ 27.529982, -17.504548 ], [ 27.535173, -17.505407 ], [ 27.540006, -17.505407 ], [ 27.54842, -17.502485 ], [ 27.551105, -17.502141 ], [ 27.553253, -17.501109 ], [ 27.551821, -17.500765 ], [ 27.549315, -17.500593 ], [ 27.551821, -17.498874 ], [ 27.550389, -17.497843 ], [ 27.552537, -17.497499 ], [ 27.554685, -17.497327 ], [ 27.55379, -17.495264 ], [ 27.551642, -17.493373 ], [ 27.548778, -17.492857 ], [ 27.54842, -17.491482 ], [ 27.548957, -17.490107 ], [ 27.550389, -17.489247 ], [ 27.550389, -17.487528 ], [ 27.548599, -17.484949 ], [ 27.548062, -17.483574 ], [ 27.54842, -17.481855 ], [ 27.550747, -17.479792 ], [ 27.552358, -17.477041 ], [ 27.555222, -17.475494 ], [ 27.557728, -17.473259 ], [ 27.558086, -17.47068 ], [ 27.55916, -17.467586 ], [ 27.561309, -17.464491 ], [ 27.563099, -17.463288 ], [ 27.56292, -17.460193 ], [ 27.560414, -17.457958 ], [ 27.557907, -17.45538 ], [ 27.557191, -17.454004 ], [ 27.557191, -17.452113 ], [ 27.554148, -17.45005 ], [ 27.552358, -17.449019 ], [ 27.550389, -17.447815 ], [ 27.549392, -17.447275 ], [ 27.55021, -17.446784 ], [ 27.551821, -17.446096 ], [ 27.553611, -17.444893 ], [ 27.554685, -17.444033 ], [ 27.55737, -17.44283 ], [ 27.558444, -17.44197 ], [ 27.560772, -17.441111 ], [ 27.561667, -17.441454 ], [ 27.562025, -17.442658 ], [ 27.563815, -17.443346 ], [ 27.565784, -17.444033 ], [ 27.566679, -17.445409 ], [ 27.568111, -17.445752 ], [ 27.568469, -17.444893 ], [ 27.568648, -17.443517 ], [ 27.569722, -17.442658 ], [ 27.569722, -17.441283 ], [ 27.568648, -17.441454 ], [ 27.567395, -17.441798 ], [ 27.566858, -17.440251 ], [ 27.567574, -17.439392 ], [ 27.568469, -17.439907 ], [ 27.569901, -17.439907 ], [ 27.571691, -17.439907 ], [ 27.573302, -17.440767 ], [ 27.573842, -17.441804 ], [ 27.573746, -17.444971 ], [ 27.573302, -17.44558 ], [ 27.572765, -17.446956 ], [ 27.57366, -17.449191 ], [ 27.572944, -17.451254 ], [ 27.571154, -17.45452 ], [ 27.569722, -17.458474 ], [ 27.569364, -17.460709 ], [ 27.56829, -17.462428 ], [ 27.567395, -17.464491 ], [ 27.56829, -17.463632 ], [ 27.569722, -17.463632 ], [ 27.569543, -17.465867 ], [ 27.57008, -17.468273 ], [ 27.570259, -17.469821 ], [ 27.571512, -17.470508 ], [ 27.572765, -17.471368 ], [ 27.57366, -17.472399 ], [ 27.572765, -17.474118 ], [ 27.572765, -17.475838 ], [ 27.572944, -17.476697 ], [ 27.573839, -17.478073 ], [ 27.574913, -17.479276 ], [ 27.575808, -17.479792 ], [ 27.577599, -17.479964 ], [ 27.577599, -17.481339 ], [ 27.57545, -17.481855 ], [ 27.572944, -17.482027 ], [ 27.572228, -17.483058 ], [ 27.570975, -17.482886 ], [ 27.570438, -17.484262 ], [ 27.569364, -17.485465 ], [ 27.566858, -17.485981 ], [ 27.565605, -17.485981 ], [ 27.564352, -17.487184 ], [ 27.562562, -17.488387 ], [ 27.561309, -17.489247 ], [ 27.56113, -17.490966 ], [ 27.560951, -17.49217 ], [ 27.562025, -17.492342 ], [ 27.562562, -17.493545 ], [ 27.561846, -17.494061 ], [ 27.564531, -17.494061 ], [ 27.5665, -17.494061 ], [ 27.565963, -17.49492 ], [ 27.565963, -17.49578 ], [ 27.565247, -17.496639 ], [ 27.563636, -17.498187 ], [ 27.562562, -17.498874 ], [ 27.560056, -17.49939 ], [ 27.560951, -17.499906 ], [ 27.5665, -17.499562 ], [ 27.568827, -17.498187 ], [ 27.571333, -17.498359 ], [ 27.57366, -17.498531 ], [ 27.577062, -17.498359 ], [ 27.578315, -17.498015 ], [ 27.580105, -17.496296 ], [ 27.581895, -17.496468 ], [ 27.583148, -17.497155 ], [ 27.586012, -17.497155 ], [ 27.587265, -17.497671 ], [ 27.589234, -17.498015 ], [ 27.591382, -17.498015 ], [ 27.59192, -17.495264 ], [ 27.59192, -17.493201 ], [ 27.592994, -17.491998 ], [ 27.594247, -17.492342 ], [ 27.596216, -17.493545 ], [ 27.598722, -17.493717 ], [ 27.600154, -17.493717 ], [ 27.601586, -17.493545 ], [ 27.601586, -17.494405 ], [ 27.600333, -17.495608 ], [ 27.599796, -17.497155 ], [ 27.599796, -17.497843 ], [ 27.601049, -17.497843 ], [ 27.601944, -17.498531 ], [ 27.603018, -17.498531 ], [ 27.60445, -17.499562 ], [ 27.604629, -17.50025 ], [ 27.60624, -17.50025 ], [ 27.608002, -17.50025 ], [ 27.607824, -17.500962 ], [ 27.607824, -17.501857 ], [ 27.607645, -17.504899 ], [ 27.607824, -17.508478 ], [ 27.609435, -17.511341 ], [ 27.611403, -17.512415 ], [ 27.613193, -17.513131 ], [ 27.614446, -17.519216 ], [ 27.615698, -17.522079 ], [ 27.617488, -17.524227 ], [ 27.616056, -17.526553 ], [ 27.614267, -17.527985 ], [ 27.615519, -17.529595 ], [ 27.614982, -17.531564 ], [ 27.611582, -17.53228 ], [ 27.611045, -17.534606 ], [ 27.613909, -17.53568 ], [ 27.612656, -17.538722 ], [ 27.611045, -17.540512 ], [ 27.610687, -17.543554 ], [ 27.610687, -17.544807 ], [ 27.611045, -17.548028 ], [ 27.608898, -17.549102 ], [ 27.608898, -17.550892 ], [ 27.606034, -17.551965 ], [ 27.606034, -17.553218 ], [ 27.606571, -17.555545 ], [ 27.605676, -17.557513 ], [ 27.606571, -17.558587 ], [ 27.608719, -17.55984 ], [ 27.609077, -17.561271 ], [ 27.610151, -17.563061 ], [ 27.611045, -17.564493 ], [ 27.611403, -17.56664 ], [ 27.611365, -17.566922 ], [ 27.611045, -17.569325 ], [ 27.611048, -17.569326 ], [ 27.611021, -17.569347 ], [ 27.622645, -17.616272 ], [ 27.622621, -17.617066 ], [ 27.621177, -17.616464 ], [ 27.619251, -17.616585 ], [ 27.616963, -17.61815 ], [ 27.611305, -17.620678 ], [ 27.610102, -17.621159 ], [ 27.604684, -17.623928 ], [ 27.602879, -17.623687 ], [ 27.599749, -17.625252 ], [ 27.587349, -17.629104 ], [ 27.578922, -17.633679 ], [ 27.573505, -17.63717 ], [ 27.567968, -17.64042 ], [ 27.563995, -17.642467 ], [ 27.561949, -17.641624 ], [ 27.555929, -17.638855 ], [ 27.554364, -17.64018 ], [ 27.550873, -17.643791 ], [ 27.545456, -17.649208 ], [ 27.540761, -17.652459 ], [ 27.535344, -17.657876 ], [ 27.526556, -17.659922 ], [ 27.524269, -17.662571 ], [ 27.519453, -17.662089 ], [ 27.516083, -17.661247 ], [ 27.513555, -17.658598 ], [ 27.51211, -17.657876 ], [ 27.507656, -17.658237 ], [ 27.504165, -17.661487 ], [ 27.501155, -17.66233 ], [ 27.495738, -17.663052 ], [ 27.492728, -17.665099 ], [ 27.487672, -17.665942 ], [ 27.484783, -17.66546 ], [ 27.473467, -17.660645 ], [ 27.473226, -17.661367 ], [ 27.470217, -17.660284 ], [ 27.467207, -17.657635 ], [ 27.467689, -17.654385 ], [ 27.466605, -17.653301 ], [ 27.462151, -17.650533 ], [ 27.459864, -17.647041 ], [ 27.460827, -17.645115 ], [ 27.467448, -17.643791 ], [ 27.46805, -17.642226 ], [ 27.469976, -17.640059 ], [ 27.470578, -17.637652 ], [ 27.475875, -17.632957 ], [ 27.478042, -17.630669 ], [ 27.47732, -17.628141 ], [ 27.470939, -17.627058 ], [ 27.470698, -17.625373 ], [ 27.474069, -17.624289 ], [ 27.472023, -17.620076 ], [ 27.472263, -17.61827 ], [ 27.472745, -17.61526 ], [ 27.470939, -17.61201 ], [ 27.469735, -17.60888 ], [ 27.47118, -17.607074 ], [ 27.474791, -17.606232 ], [ 27.474791, -17.603704 ], [ 27.474671, -17.601537 ], [ 27.476356, -17.598648 ], [ 27.479246, -17.593832 ], [ 27.478403, -17.591545 ], [ 27.471662, -17.585526 ], [ 27.472762, -17.584828 ], [ 27.471397, -17.582683 ], [ 27.470975, -17.582008 ], [ 27.471818, -17.581063 ], [ 27.471959, -17.579848 ], [ 27.473505, -17.579713 ], [ 27.474208, -17.579173 ], [ 27.474068, -17.578498 ], [ 27.473084, -17.579038 ], [ 27.472662, -17.578093 ], [ 27.47224, -17.578228 ], [ 27.471116, -17.578228 ], [ 27.470413, -17.577958 ], [ 27.46985, -17.577148 ], [ 27.468585, -17.576878 ], [ 27.46732, -17.577013 ], [ 27.466477, -17.576743 ], [ 27.466898, -17.575663 ], [ 27.466055, -17.574988 ], [ 27.46493, -17.573908 ], [ 27.465212, -17.573233 ], [ 27.465493, -17.572288 ], [ 27.464228, -17.572153 ], [ 27.463665, -17.571613 ], [ 27.463525, -17.570128 ], [ 27.463525, -17.568238 ], [ 27.464649, -17.566348 ], [ 27.466055, -17.564863 ], [ 27.467461, -17.563243 ], [ 27.46971, -17.562703 ], [ 27.470834, -17.562838 ], [ 27.471678, -17.564188 ], [ 27.472521, -17.562838 ], [ 27.472521, -17.562028 ], [ 27.471256, -17.562433 ], [ 27.470272, -17.561218 ], [ 27.470132, -17.560678 ], [ 27.469288, -17.560273 ], [ 27.46971, -17.559733 ], [ 27.471116, -17.559868 ], [ 27.471116, -17.558653 ], [ 27.471116, -17.557438 ], [ 27.47224, -17.556898 ], [ 27.473505, -17.556493 ], [ 27.47477, -17.557438 ], [ 27.475473, -17.558248 ], [ 27.476457, -17.558788 ], [ 27.476457, -17.559193 ], [ 27.476036, -17.560543 ], [ 27.475754, -17.562028 ], [ 27.475754, -17.562703 ], [ 27.476738, -17.562703 ], [ 27.47702, -17.563648 ], [ 27.477441, -17.563243 ], [ 27.478285, -17.562568 ], [ 27.478285, -17.562298 ], [ 27.477863, -17.561488 ], [ 27.478847, -17.561488 ], [ 27.479128, -17.562163 ], [ 27.479269, -17.562973 ], [ 27.480534, -17.563108 ], [ 27.481237, -17.562298 ], [ 27.481799, -17.562163 ], [ 27.482361, -17.562703 ], [ 27.483767, -17.562703 ], [ 27.483486, -17.562028 ], [ 27.48208, -17.561758 ], [ 27.481939, -17.561218 ], [ 27.481377, -17.560948 ], [ 27.480674, -17.560543 ], [ 27.480674, -17.559733 ], [ 27.480112, -17.559463 ], [ 27.479409, -17.559193 ], [ 27.478987, -17.557978 ], [ 27.479269, -17.556493 ], [ 27.47969, -17.556088 ], [ 27.479971, -17.555683 ], [ 27.479409, -17.554873 ], [ 27.480112, -17.554468 ], [ 27.480253, -17.553928 ], [ 27.480253, -17.553118 ], [ 27.481799, -17.552578 ], [ 27.482783, -17.552038 ], [ 27.483907, -17.551498 ], [ 27.485032, -17.550148 ], [ 27.486297, -17.549473 ], [ 27.487141, -17.549743 ], [ 27.487984, -17.550553 ], [ 27.488687, -17.549473 ], [ 27.488687, -17.548798 ], [ 27.489952, -17.548528 ], [ 27.488827, -17.548528 ], [ 27.488265, -17.547718 ], [ 27.487562, -17.547583 ], [ 27.486859, -17.547313 ], [ 27.487, -17.546368 ], [ 27.487, -17.545153 ], [ 27.486157, -17.545153 ], [ 27.486157, -17.546233 ], [ 27.486016, -17.546908 ], [ 27.485735, -17.547853 ], [ 27.485173, -17.548528 ], [ 27.483767, -17.548528 ], [ 27.48208, -17.548528 ], [ 27.481799, -17.548663 ], [ 27.481096, -17.549878 ], [ 27.479971, -17.550148 ], [ 27.479409, -17.550418 ], [ 27.478847, -17.550688 ], [ 27.477722, -17.549743 ], [ 27.476598, -17.550013 ], [ 27.475052, -17.550148 ], [ 27.474911, -17.549068 ], [ 27.474068, -17.548933 ], [ 27.472662, -17.549608 ], [ 27.471537, -17.550148 ], [ 27.470272, -17.550823 ], [ 27.469148, -17.551093 ], [ 27.469991, -17.550013 ], [ 27.471678, -17.549338 ], [ 27.471959, -17.548258 ], [ 27.470834, -17.548663 ], [ 27.469148, -17.549068 ], [ 27.46718, -17.549068 ], [ 27.465071, -17.549338 ], [ 27.462822, -17.550688 ], [ 27.460432, -17.550958 ], [ 27.458886, -17.548663 ], [ 27.458605, -17.547178 ], [ 27.459308, -17.545963 ], [ 27.460292, -17.544613 ], [ 27.461557, -17.543533 ], [ 27.4624, -17.542858 ], [ 27.463946, -17.542183 ], [ 27.46493, -17.541508 ], [ 27.465352, -17.540968 ], [ 27.466336, -17.539888 ], [ 27.46718, -17.539483 ], [ 27.468445, -17.538673 ], [ 27.469569, -17.538133 ], [ 27.469569, -17.537188 ], [ 27.469007, -17.536378 ], [ 27.469429, -17.535973 ], [ 27.470694, -17.536378 ], [ 27.470694, -17.537188 ], [ 27.471678, -17.537053 ], [ 27.472662, -17.536513 ], [ 27.472521, -17.535298 ], [ 27.472381, -17.534488 ], [ 27.471818, -17.534218 ], [ 27.471116, -17.534623 ], [ 27.470413, -17.533543 ], [ 27.46971, -17.533678 ], [ 27.469007, -17.533408 ], [ 27.469429, -17.532463 ], [ 27.468866, -17.532328 ], [ 27.467039, -17.532328 ], [ 27.466617, -17.532733 ], [ 27.467039, -17.533678 ], [ 27.465774, -17.533678 ], [ 27.465774, -17.534488 ], [ 27.465352, -17.535028 ], [ 27.464228, -17.536108 ], [ 27.463103, -17.537188 ], [ 27.461978, -17.537458 ], [ 27.460573, -17.537728 ], [ 27.458745, -17.537863 ], [ 27.457761, -17.538673 ], [ 27.456074, -17.539753 ], [ 27.455512, -17.539078 ], [ 27.455512, -17.538247 ] ], [ [ 27.57366, -17.449191 ], [ 27.573621, -17.449094 ], [ 27.573614, -17.449323 ], [ 27.57366, -17.449191 ] ] ], [ [ [ 27.466898, -17.579443 ], [ 27.466898, -17.580065 ], [ 27.466207, -17.579162 ], [ 27.466758, -17.578633 ], [ 27.466898, -17.579443 ] ] ] ] } }
]
}
