{
"type": "FeatureCollection",
"name": "intersected",
"crs": { "type": "name", "properties": { "name": "urn:ogc:def:crs:OGC:1.3:CRS84" } },
"features": [
{ "type": "Feature", "properties": { "AREA": 0.029, "PERIMETER": 0.991, "LANDUSE_": 179, "LANDUSE_ID": 0, "NAME": "PANDA MASUIE", "LANDTYPE": "Forest Land" }, "geometry": { "type": "MultiPolygon", "coordinates": [ [ [ [ 25.644842147827148, -18.046909332275391 ], [ 25.759601593017578, -18.052461624145508 ], [ 25.750347137451172, -18.074672698974609 ], [ 25.700370788574219, -18.083927154541016 ], [ 25.683712005615234, -18.104288101196289 ], [ 25.683712005615234, -18.169071197509766 ], [ 25.737390518188477, -18.170923233032227 ], [ 25.763711929321289, -18.157978057861328 ], [ 25.768558502197266, -18.155593872070312 ], [ 25.755899429321289, -18.180177688598633 ], [ 25.69666862487793, -18.206090927124023 ], [ 25.691364288330078, -18.206752777099609 ], [ 25.681861877441406, -18.207941055297852 ], [ 25.489362716674805, -18.246810913085938 ], [ 25.47270393371582, -18.21534538269043 ], [ 25.471368789672852, -18.213176727294922 ], [ 25.457895278930664, -18.191282272338867 ], [ 25.493064880371094, -18.172773361206055 ], [ 25.491212844848633, -18.154264450073242 ], [ 25.583761215209961, -18.124649047851562 ], [ 25.644842147827148, -18.046909332275391 ] ] ] ] } },
{ "type": "Feature", "properties": { "AREA": 0.022, "PERIMETER": 0.687, "LANDUSE_": 215, "LANDUSE_ID": 0, "NAME": "KAZUMA", "LANDTYPE": "Forest Land" }, "geometry": { "type": "MultiPolygon", "coordinates": [ [ [ [ 25.740739822387695, -18.287561416625977 ], [ 25.742942810058594, -18.291234970092773 ], [ 25.752197265625, -18.298639297485352 ], [ 25.737390518188477, -18.331954956054688 ], [ 25.765153884887695, -18.368974685668945 ], [ 25.742942810058594, -18.363422393798828 ], [ 25.709625244140625, -18.376379013061523 ], [ 25.704072952270508, -18.394887924194336 ], [ 25.630035400390625, -18.457820892333984 ], [ 25.600112915039062, -18.472330093383789 ], [ 25.587589263916016, -18.456228256225586 ], [ 25.568027496337891, -18.426885604858398 ], [ 25.550020217895508, -18.409244537353516 ], [ 25.536077499389648, -18.395586013793945 ], [ 25.529586791992188, -18.388248443603516 ], [ 25.591163635253906, -18.328252792358398 ], [ 25.61152458190918, -18.344911575317383 ], [ 25.648544311523438, -18.291234970092773 ], [ 25.740739822387695, -18.287561416625977 ] ] ] ] } },
{ "type": "Feature", "properties": { "AREA": 0.641, "PERIMETER": 4.597, "LANDUSE_": 305, "LANDUSE_ID": 0, "NAME": "TSHOLOTSHO", "LANDTYPE": "Communal Land" }, "geometry": { "type": "MultiPolygon", "coordinates": [ [ [ [ 27.452335357666016, -19.107791900634766 ], [ 27.675693511962891, -19.113470077514648 ], [ 27.678810119628906, -19.113550186157227 ], [ 27.684909820556641, -19.129819869995117 ], [ 27.697113037109375, -19.148122787475586 ], [ 27.701181411743164, -19.154224395751953 ], [ 27.695079803466797, -19.162359237670898 ], [ 27.68897819519043, -19.172529220581055 ], [ 27.699146270751953, -19.176595687866211 ], [ 27.695079803466797, -19.184730529785156 ], [ 27.699146270751953, -19.201000213623047 ], [ 27.707281112670898, -19.213203430175781 ], [ 27.709316253662109, -19.227439880371094 ], [ 27.717451095581055, -19.235574722290039 ], [ 27.7255859375, -19.25184440612793 ], [ 27.729652404785156, -19.259979248046875 ], [ 27.729652404785156, -19.26811408996582 ], [ 27.717451095581055, -19.26811408996582 ], [ 27.707281112670898, -19.264047622680664 ], [ 27.697113037109375, -19.264047622680664 ], [ 27.693044662475586, -19.276248931884766 ], [ 27.697113037109375, -19.292518615722656 ], [ 27.695079803466797, -19.298620223999023 ], [ 27.682876586914062, -19.298620223999023 ], [ 27.676774978637695, -19.298620223999023 ], [ 27.684909820556641, -19.310823440551758 ], [ 27.676774978637695, -19.316925048828125 ], [ 27.680843353271484, -19.329126358032227 ], [ 27.670675277709961, -19.32505989074707 ], [ 27.662538528442383, -19.331161499023438 ], [ 27.674741744995117, -19.335227966308594 ], [ 27.66864013671875, -19.343362808227539 ], [ 27.672708511352539, -19.353530883789062 ], [ 27.670675277709961, -19.357599258422852 ], [ 27.662538528442383, -19.351497650146484 ], [ 27.658472061157227, -19.361667633056641 ], [ 27.664573669433594, -19.369813919067383 ], [ 27.660209655761719, -19.369808197021484 ], [ 27.656438827514648, -19.369802474975586 ], [ 27.654403686523438, -19.377937316894531 ], [ 27.664573669433594, -19.382003784179688 ], [ 27.660505294799805, -19.392173767089844 ], [ 27.672708511352539, -19.390138626098633 ], [ 27.680843353271484, -19.400308609008789 ], [ 27.68897819519043, -19.394207000732422 ], [ 27.699146270751953, -19.390138626098633 ], [ 27.695079803466797, -19.400308609008789 ], [ 27.691011428833008, -19.406408309936523 ], [ 27.707281112670898, -19.408443450927734 ], [ 27.723552703857422, -19.410476684570312 ], [ 27.723552703857422, -19.420644760131836 ], [ 27.709316253662109, -19.420644760131836 ], [ 27.713382720947266, -19.434881210327148 ], [ 27.723552703857422, -19.438949584960938 ], [ 27.713382720947266, -19.443016052246094 ], [ 27.709316253662109, -19.45318603515625 ], [ 27.717451095581055, -19.461320877075195 ], [ 27.717451095581055, -19.477590560913086 ], [ 27.717451095581055, -19.487758636474609 ], [ 27.733720779418945, -19.491827011108398 ], [ 27.745922088623047, -19.506063461303711 ], [ 27.760158538818359, -19.510129928588867 ], [ 27.770959854125977, -19.514759063720703 ], [ 27.776430130004883, -19.530467987060547 ], [ 27.774394989013672, -19.54063606262207 ], [ 27.771869659423828, -19.546527862548828 ], [ 27.768293380737305, -19.554872512817383 ], [ 27.764226913452148, -19.565040588378906 ], [ 27.774394989013672, -19.575210571289062 ], [ 27.788631439208984, -19.577243804931641 ], [ 27.786598205566406, -19.589447021484375 ], [ 27.780496597290039, -19.599615097045898 ], [ 27.786598205566406, -19.611818313598633 ], [ 27.780496597290039, -19.621986389160156 ], [ 27.792699813842773, -19.63215446472168 ], [ 27.794733047485352, -19.640289306640625 ], [ 27.784564971923828, -19.646390914916992 ], [ 27.778463363647461, -19.652492523193359 ], [ 27.780496597290039, -19.674863815307617 ], [ 27.772361755371094, -19.691133499145508 ], [ 27.76219367980957, -19.703336715698242 ], [ 27.772361755371094, -19.711471557617188 ], [ 27.780496597290039, -19.715538024902344 ], [ 27.780496597290039, -19.727741241455078 ], [ 27.790664672851562, -19.733842849731445 ], [ 27.790664672851562, -19.746044158935547 ], [ 27.794733047485352, -19.752145767211914 ], [ 27.811002731323242, -19.758247375488281 ], [ 27.81303596496582, -19.768415451049805 ], [ 27.825239181518555, -19.772483825683594 ], [ 27.832839965820312, -19.779298782348633 ], [ 27.8333740234375, -19.788753509521484 ], [ 27.841508865356445, -19.79688835144043 ], [ 27.845577239990234, -19.805023193359375 ], [ 27.855745315551758, -19.805023193359375 ], [ 27.857778549194336, -19.817226409912109 ], [ 27.867948532104492, -19.829427719116211 ], [ 27.886251449584961, -19.831462860107422 ], [ 27.90455436706543, -19.837564468383789 ], [ 27.912691116333008, -19.855867385864258 ], [ 27.912691116333008, -19.866035461425781 ], [ 27.918790817260742, -19.878238677978516 ], [ 27.922859191894531, -19.888406753540039 ], [ 27.839475631713867, -19.935182571411133 ], [ 27.912481307983398, -20.024839401245117 ], [ 27.953365325927734, -20.073478698730469 ], [ 27.895437240600586, -20.197324752807617 ], [ 27.882184982299805, -20.191434860229492 ], [ 27.867948532104492, -20.197536468505859 ], [ 27.859813690185547, -20.189401626586914 ], [ 27.851676940917969, -20.189401626586914 ], [ 27.841508865356445, -20.17719841003418 ], [ 27.825239181518555, -20.181266784667969 ], [ 27.81303596496582, -20.171098709106445 ], [ 27.806936264038086, -20.158895492553711 ], [ 27.786598205566406, -20.152793884277344 ], [ 27.770328521728516, -20.140592575073242 ], [ 27.747957229614258, -20.128389358520508 ], [ 27.739822387695312, -20.114152908325195 ], [ 27.7255859375, -20.112119674682617 ], [ 27.717451095581055, -20.103984832763672 ], [ 27.715415954589844, -20.091781616210938 ], [ 27.699146270751953, -20.087715148925781 ], [ 27.682876586914062, -20.075511932373047 ], [ 27.66864013671875, -20.063308715820312 ], [ 27.650337219238281, -20.053140640258789 ], [ 27.638134002685547, -20.036870956420898 ], [ 27.623897552490234, -20.020601272583008 ], [ 27.605594635009766, -20.014499664306641 ], [ 27.595426559448242, -19.99822998046875 ], [ 27.589324951171875, -19.979925155639648 ], [ 27.573055267333984, -19.96162223815918 ], [ 27.568986892700195, -19.9412841796875 ], [ 27.564920425415039, -19.920948028564453 ], [ 27.552717208862305, -19.90467643737793 ], [ 27.530345916748047, -19.896541595458984 ], [ 27.530345916748047, -19.886373519897461 ], [ 27.526277542114258, -19.880271911621094 ], [ 27.512042999267578, -19.87010383605957 ], [ 27.491704940795898, -19.864002227783203 ], [ 27.469333648681641, -19.864002227783203 ], [ 27.457130432128906, -19.855867385864258 ], [ 27.438827514648438, -19.85383415222168 ], [ 27.424591064453125, -19.847732543945312 ], [ 27.41645622253418, -19.837564468383789 ], [ 27.400186538696289, -19.825361251831055 ], [ 27.373746871948242, -19.811124801635742 ], [ 27.35951042175293, -19.817226409912109 ], [ 27.349342346191406, -19.811124801635742 ], [ 27.333072662353516, -19.811124801635742 ], [ 27.310701370239258, -19.809091567993164 ], [ 27.296464920043945, -19.811124801635742 ], [ 27.276126861572266, -19.815193176269531 ], [ 27.26799201965332, -19.829427719116211 ], [ 27.249689102172852, -19.827394485473633 ], [ 27.23138427734375, -19.819259643554688 ], [ 27.217147827148438, -19.819259643554688 ], [ 27.200878143310547, -19.823328018188477 ], [ 27.188676834106445, -19.821292877197266 ], [ 27.1805419921875, -19.815193176269531 ], [ 27.16020393371582, -19.811124801635742 ], [ 27.135799407958984, -19.807056427001953 ], [ 27.125629425048828, -19.809091567993164 ], [ 27.105293273925781, -19.81315803527832 ], [ 27.082921981811523, -19.815193176269531 ], [ 27.064617156982422, -19.825361251831055 ], [ 27.048347473144531, -19.819259643554688 ], [ 27.021909713745117, -19.819259643554688 ], [ 27.007673263549805, -19.823328018188477 ], [ 26.985301971435547, -19.823328018188477 ], [ 26.971065521240234, -19.817226409912109 ], [ 26.952762603759766, -19.819259643554688 ], [ 26.934457778930664, -19.819259643554688 ], [ 26.90802001953125, -19.823328018188477 ], [ 26.883613586425781, -19.827394485473633 ], [ 26.863277435302734, -19.831462860107422 ], [ 26.847007751464844, -19.837564468383789 ], [ 26.822601318359375, -19.839597702026367 ], [ 26.812433242797852, -19.845699310302734 ], [ 26.794130325317383, -19.857900619506836 ], [ 26.77989387512207, -19.861968994140625 ], [ 26.763622283935547, -19.864002227783203 ], [ 26.753454208374023, -19.868070602416992 ], [ 26.7432861328125, -19.878238677978516 ], [ 26.729049682617188, -19.892475128173828 ], [ 26.718881607055664, -19.896541595458984 ], [ 26.704746246337891, -19.89830207824707 ], [ 26.863277435302734, -19.467422485351562 ], [ 26.867343902587891, -19.449117660522461 ], [ 26.867343902587891, -19.436916351318359 ], [ 26.875478744506836, -19.422679901123047 ], [ 26.883613586425781, -19.412509918212891 ], [ 26.88768196105957, -19.394207000732422 ], [ 26.893783569335938, -19.386072158813477 ], [ 26.901918411254883, -19.377937316894531 ], [ 26.912086486816406, -19.369802474975586 ], [ 26.918188095092773, -19.35963249206543 ], [ 26.924289703369141, -19.347431182861328 ], [ 26.934457778930664, -19.341329574584961 ], [ 26.985301971435547, -19.339296340942383 ], [ 27.007673263549805, -19.335227966308594 ], [ 27.03614616394043, -19.331161499023438 ], [ 27.054449081420898, -19.331161499023438 ], [ 27.084955215454102, -19.329126358032227 ], [ 27.101224899291992, -19.32505989074707 ], [ 27.115461349487305, -19.320991516113281 ], [ 27.129697799682617, -19.327093124389648 ], [ 27.135799407958984, -19.320991516113281 ], [ 27.154102325439453, -19.323024749755859 ], [ 27.172407150268555, -19.323024749755859 ], [ 27.194778442382812, -19.323024749755859 ], [ 27.204946517944336, -19.329126358032227 ], [ 27.213081359863281, -19.320991516113281 ], [ 27.229351043701172, -19.318958282470703 ], [ 27.23138427734375, -19.306755065917969 ], [ 27.233419418334961, -19.294553756713867 ], [ 27.25172233581543, -19.278284072875977 ], [ 27.270025253295898, -19.26811408996582 ], [ 27.282228469848633, -19.257946014404297 ], [ 27.298498153686523, -19.243709564208984 ], [ 27.312734603881836, -19.235574722290039 ], [ 27.335105895996094, -19.233541488647461 ], [ 27.349342346191406, -19.23150634765625 ], [ 27.355443954467773, -19.221338272094727 ], [ 27.371713638305664, -19.223371505737305 ], [ 27.385950088500977, -19.23150634765625 ], [ 27.398151397705078, -19.227439880371094 ], [ 27.414422988891602, -19.217269897460938 ], [ 27.428657531738281, -19.213203430175781 ], [ 27.444929122924805, -19.219305038452148 ], [ 27.448995590209961, -19.213203430175781 ], [ 27.45306396484375, -19.203035354614258 ], [ 27.451028823852539, -19.190832138061523 ], [ 27.448995590209961, -19.178628921508789 ], [ 27.444929122924805, -19.166427612304688 ], [ 27.434759140014648, -19.152191162109375 ], [ 27.440860748291016, -19.133886337280273 ], [ 27.438827514648438, -19.121685028076172 ], [ 27.438827514648438, -19.107448577880859 ], [ 27.452335357666016, -19.107791900634766 ] ] ] ] } }
]
}
